[{"OBJECT_NAME":"TIANMU-1 09","OBJECT_ID":"2023-101C","EPOCH":"2026-03-09T22:17:34.703232","MEAN_MOTION":15.29080822,"ECCENTRICITY":0.00049013,"INCLINATION":97.267,"RA_OF_ASC_NODE":121.1263,"ARG_OF_PERICENTER":139.4293,"MEAN_ANOMALY":220.7314,"EPHEMERIS_TYPE":0,"CLASSIFICATION_TYPE":"U","NORAD_CAT_ID":57401,"ELEMENT_SET_NO":999,"REV_AT_EPOCH":14647,"BSTAR":0.00030540035,"MEAN_MOTION_DOT":8.553e-5,"MEAN_MOTION_DDOT":0},{"OBJECT_NAME":"STARLINK-31973","OBJECT_ID":"2024-106X","EPOCH":"2026-03-09T02:55:42.343104","MEAN_MOTION":15.27567779,"ECCENTRICITY":6.024e-5,"INCLINATION":43.0021,"RA_OF_ASC_NODE":335.9351,"ARG_OF_PERICENTER":246.2423,"MEAN_ANOMALY":113.8366,"EPHEMERIS_TYPE":0,"CLASSIFICATION_TYPE":"U","NORAD_CAT_ID":59943,"ELEMENT_SET_NO":999,"REV_AT_EPOCH":10043,"BSTAR":-3.5143524e-5,"MEAN_MOTION_DOT":-1.228e-5,"MEAN_MOTION_DDOT":0}]
